NORAD_CAT_ID,OBJECT_NAME,OBJECT_TYPE,EPOCH,MEAN_MOTION,ECCENTRICITY,INCLINATION,RA_OF_ASC_NODE,ARG_OF_PERICENTER,MEAN_ANOMALY,BSTAR,MEAN_MOTION_DOT,MEAN_MOTION_DDOT,TLE_LINE0,TLE_LINE1,TLE_LINE2,SEMIMAJOR_AXIS,PERIOD,APOGEE,PERIGEE,DECAYED
54188.0,STARLINK-5238,PAYLOAD,2023-05-25 13:45:09,15.08839571,0.0001367,53.2165,249.2709,113.7785,246.335,5.0125e-05,5.1e-06,0.0,0 STARLINK-5238,1 54188U 22141AH  23145.57302372  .00000510  00000-0  50125-4 0  9993,2 54188  53.2165 249.2709 0001367 113.7785 246.3350 15.08839571 32142,6917.882,95.438,540.692,538.801,0.0
54188.0,STARLINK-5238,PAYLOAD,2023-05-26 12:00:33,15.08834618,0.0001136,53.2161,245.1094,97.5003,262.6119,0.00012883,1.763e-05,0.0,0 STARLINK-5238,1 54188U 22141AH  23146.50038510  .00001763  00000-0  12883-3 0  9996,2 54188  53.2161 245.1094 0001136  97.5003 262.6119 15.08834618 32282,6917.897,95.438,540.548,538.976,0.0
54188.0,STARLINK-5238,PAYLOAD,2023-05-27 10:15:57,15.08834319,0.0001095,53.2156,240.9483,92.7672,267.3445,-2.4146e-05,-6.72e-06,0.0,0 STARLINK-5238,1 54188U 22141AH  23147.42775077 -.00000672  00000-0 -24146-4 0  9990,2 54188  53.2156 240.9483 0001095  92.7672 267.3445 15.08834319 32657,6917.898,95.438,540.52,539.005,0.0
54188.0,STARLINK-5238,PAYLOAD,2023-05-27 16:37:29,15.08840403,0.0001117,53.2155,239.7585,99.8164,260.2954,2.7541e-05,1.51e-06,0.0,0 STARLINK-5238,1 54188U 22141AH  23147.69270516  .00000151  00000-0  27541-4 0  9999,2 54188  53.2155 239.7585 0001117  99.8164 260.2954 15.08840403 32696,6917.879,95.438,540.517,538.971,0.0
54188.0,STARLINK-5238,PAYLOAD,2023-05-28 05:20:35,15.08836632,0.0001102,53.2155,237.3793,91.6587,268.4532,1.3155e-05,-7.8e-07,0.0,0 STARLINK-5238,1 54188U 22141AH  23148.22262900 -.00000078  00000-0  13155-4 0  9992,2 54188  53.2155 237.3793 0001102  91.6587 268.4532 15.08836632 32549,6917.891,95.438,540.518,538.993,0.0
54188.0,STARLINK-5238,PAYLOAD,2023-05-28 13:17:30,15.08840095,0.0001092,53.2153,235.8926,92.8402,267.2715,4.0667e-05,3.59e-06,0.0,0 STARLINK-5238,1 54188U 22141AH  23148.55382633  .00000359  00000-0  40667-4 0  9993,2 54188  53.2153 235.8926 0001092  92.8402 267.2715 15.08840095 32598,6917.88,95.438,540.501,538.99,0.0
54188.0,STARLINK-5238,PAYLOAD,2023-05-28 22:49:49,15.08841628,0.0001098,53.2154,234.1084,88.2583,271.8535,5.4744e-05,5.84e-06,0.0,0 STARLINK-5238,1 54188U 22141AH  23148.95126485  .00000584  00000-0  54744-4 0  9999,2 54188  53.2154 234.1084 0001098  88.2583 271.8535 15.08841628 32887,6917.875,95.437,540.5,538.981,0.0
54188.0,STARLINK-5238,PAYLOAD,2023-05-29 13:08:17,15.08842536,0.0001109,53.2155,231.4318,86.7498,273.3621,6.4509e-05,7.39e-06,0.0,0 STARLINK-5238,1 54188U 22141AH  23149.54742426  .00000739  00000-0  64509-4 0  9996,2 54188  53.2155 231.4318 0001109  86.7498 273.3621 15.08842536 32746,6917.873,95.437,540.505,538.97,0.0
54188.0,STARLINK-5238,PAYLOAD,2023-05-29 22:40:36,15.0883698,0.0001145,53.2148,229.6465,82.5179,277.5943,-1.5031e-06,-3.12e-06,0.0,0 STARLINK-5238,1 54188U 22141AH  23149.94486983 -.00000312  00000-0 -15031-5 0  9999,2 54188  53.2148 229.6465 0001145  82.5179 277.5943 15.08836980 33032,6917.89,95.438,540.547,538.963,0.0
54188.0,STARLINK-5238,PAYLOAD,2023-05-30 11:23:41,15.08846974,0.0001151,53.2149,227.2682,85.6837,274.4287,-0.00015408,-2.74e-05,0.0,0 STARLINK-5238,1 54188U 22141AH  23150.47478972 -.00002740  00000-0 -15408-3 0  9991,2 54188  53.2149 227.2682 0001151  85.6837 274.4287 15.08846974 32883,6917.859,95.437,540.52,538.928,0.0
54188.0,STARLINK-5238,PAYLOAD,2023-05-31 09:39:05,15.08853476,0.0001354,53.2154,223.1062,75.5138,284.6005,-5.1463e-05,-1.107e-05,0.0,0 STARLINK-5238,1 54188U 22141AH  23151.40214160 -.00001107  00000-0 -51463-4 0  9990,2 54188  53.2154 223.1062 0001354  75.5138 284.6005 15.08853476 33251,6917.839,95.437,540.641,538.768,0.0
54188.0,STARLINK-5238,PAYLOAD,2023-05-31 11:14:28,15.08846068,0.00013,53.2156,222.8088,73.5866,286.5268,5.6032e-05,6.04e-06,0.0,0 STARLINK-5238,1 54188U 22141AH  23151.46838331  .00000604  00000-0  56032-4 0  9994,2 54188  53.2156 222.8088 0001300  73.5866 286.5268 15.08846068 33031,6917.862,95.437,540.626,538.828,0.0
54188.0,STARLINK-5238,PAYLOAD,2023-05-31 22:22:10,15.08841678,0.0001282,53.2156,220.727,74.0174,286.096,4.7341e-05,4.66e-06,0.0,0 STARLINK-5238,1 54188U 22141AH  23151.93206505  .00000466  00000-0  47341-4 0  9997,2 54188  53.2156 220.7270 0001282  74.0174 286.0960 15.08841678 33337,6917.875,95.437,540.627,538.853,0.0
54188.0,STARLINK-5238,PAYLOAD,2023-06-01 11:05:15,15.08836065,0.0001307,53.2156,218.3484,75.5502,284.5635,3.415e-05,2.56e-06,0.0,0 STARLINK-5238,1 54188U 22141AH  23152.46198997  .00000256  00000-0  34150-4 0  9992,2 54188  53.2156 218.3484 0001307  75.5502 284.5635 15.08836065 33185,6917.892,95.438,540.662,538.853,0.0
54188.0,STARLINK-5238,PAYLOAD,2023-06-02 14:06:49,15.08838188,0.0001277,53.2155,213.2921,89.3485,270.7653,-3.1244e-05,-7.85e-06,0.0,0 STARLINK-5238,1 54188U 22141AH  23153.58807186 -.00000785  00000-0 -31244-4 0  9993,2 54188  53.2155 213.2921 0001277  89.3485 270.7653 15.08838188 33357,6917.886,95.438,540.634,538.868,0.0
54188.0,STARLINK-5238,PAYLOAD,2023-06-02 20:28:22,15.08833575,0.0001282,53.2155,212.1014,97.4036,262.7102,-2.9101e-05,-7.51e-06,0.0,0 STARLINK-5238,1 54188U 22141AH  23153.85303494 -.00000751  00000-0 -29101-4 0  9998,2 54188  53.2155 212.1014 0001282  97.4036 262.7102 15.08833575 33395,6917.9,95.438,540.652,538.878,0.0
54188.0,STARLINK-5238,PAYLOAD,2023-06-03 10:46:50,15.08833831,0.0001221,53.2153,209.4256,93.0347,267.0785,9.2616e-06,-1.4e-06,0.0,0 STARLINK-5238,1 54188U 22141AH  23154.44919605 -.00000140  00000-0  92616-5 0  9994,2 54188  53.2153 209.4256 0001221  93.0347 267.0785 15.08833831 33480,6917.899,95.438,540.609,538.92,0.0
54188.0,STARLINK-5238,PAYLOAD,2023-06-03 20:19:09,15.08833022,0.000121,53.2153,207.6414,89.0713,271.0417,1.9552e-05,2.3e-07,0.0,0 STARLINK-5238,1 54188U 22141AH  23154.84663785  .00000023  00000-0  19552-4 0  9999,2 54188  53.2153 207.6414 0001210  89.0713 271.0417 15.08833022 33542,6917.902,95.438,540.604,538.93,0.0
54188.0,STARLINK-5238,PAYLOAD,2023-06-03 23:29:55,15.08832233,0.0001165,53.215,207.0468,89.7834,270.3292,2.9707e-05,1.85e-06,0.0,0 STARLINK-5238,1 54188U 22141AH  23154.97911848  .00000185  00000-0  29707-4 0  9991,2 54188  53.2150 207.0468 0001165  89.7834 270.3292 15.08832233 33795,6917.904,95.438,540.575,538.963,0.0
54188.0,STARLINK-5238,PAYLOAD,2023-06-04 12:13:00,15.08834369,0.000118,53.215,204.6678,91.4982,268.6145,4.3191e-05,4e-06,0.0,0 STARLINK-5238,1 54188U 22141AH  23155.50903879  .00000400  00000-0  43191-4 0  9999,2 54188  53.2150 204.6678 0001180  91.4982 268.6145 15.08834369 33645,6917.898,95.438,540.579,538.946,0.0
54188.0,STARLINK-5238,PAYLOAD,2023-06-04 20:09:56,15.08837124,0.0001165,53.2151,203.1812,88.3208,271.7918,6.9814e-05,8.23e-06,0.0,0 STARLINK-5238,1 54188U 22141AH  23155.84023689  .00000823  00000-0  69814-4 0  9997,2 54188  53.2151 203.1812 0001165  88.3208 271.7918 15.08837124 33699,6917.889,95.438,540.56,538.948,0.0
54188.0,STARLINK-5238,PAYLOAD,2023-06-04 23:20:42,15.08838341,0.0001109,53.215,202.5867,89.5048,270.6072,0.00010227,1.34e-05,0.0,0 STARLINK-5238,1 54188U 22141AH  23155.97271510  .00001340  00000-0  10227-3 0  9997,2 54188  53.2150 202.5867 0001109  89.5048 270.6072 15.08838341 33943,6917.885,95.438,540.518,538.983,0.0
54188.0,STARLINK-5238,PAYLOAD,2023-06-05 12:03:47,15.08845864,0.0001127,53.215,200.2077,89.3744,270.7377,0.00011698,1.575e-05,0.0,0 STARLINK-5238,1 54188U 22141AH  23156.50262956  .00001575  00000-0  11698-3 0  9994,2 54188  53.2150 200.2077 0001127  89.3744 270.7377 15.08845864 33792,6917.862,95.437,540.507,538.948,0.0
54188.0,STARLINK-5238,PAYLOAD,2023-06-06 02:22:16,15.08836709,0.0001177,53.2147,197.5314,92.2164,267.8963,2.5068e-05,1.11e-06,0.0,0 STARLINK-5238,1 54188U 22141AH  23157.09879808  .00000111  00000-0  25068-4 0  9991,2 54188  53.2147 197.5314 0001177  92.2164 267.8963 15.08836709 34117,6917.89,95.438,540.57,538.941,0.0
54188.0,STARLINK-5238,PAYLOAD,2023-06-06 10:19:11,15.08837843,0.0001132,53.2149,196.0443,93.066,267.0462,3.4376e-05,2.59e-06,0.0,0 STARLINK-5238,1 54188U 22141AH  23157.42999743  .00000259  00000-0  34376-4 0  9994,2 54188  53.2149 196.0443 0001132  93.0660 267.0462 15.08837843 33932,6917.887,95.438,540.535,538.969,0.0
54188.0,STARLINK-5238,PAYLOAD,2023-06-07 10:09:58,15.08844933,0.00011,53.2148,191.5838,94.185,265.9268,-2.4883e-06,-3.27e-06,0.0,0 STARLINK-5238,1 54188U 22141AH  23158.42359268 -.00000327  00000-0 -24883-5 0  9998,2 54188  53.2148 191.5838 0001100  94.1850 265.9268 15.08844933 34319,6917.865,95.437,540.491,538.969,0.0
54188.0,STARLINK-5238,PAYLOAD,2023-06-07 19:42:17,15.08838446,0.0001082,53.2147,189.7994,93.2768,266.8348,-2.9916e-05,-7.64e-06,0.0,0 STARLINK-5238,1 54188U 22141AH  23158.82103707 -.00000764  00000-0 -29916-4 0  9993,2 54188  53.2147 189.7994 0001082  93.2768 266.8348 15.08838446 34149,6917.885,95.438,540.499,539.002,0.0
54188.0,STARLINK-5238,PAYLOAD,2023-06-08 02:03:50,15.08833712,0.0001067,53.2146,188.6101,92.5961,267.5153,2.1942e-05,6.1e-07,0.0,0 STARLINK-5238,1 54188U 22141AH  23159.08599879  .00000061  00000-0  21942-4 0  9990,2 54188  53.2146 188.6101 0001067  92.5961 267.5153 15.08833712 34419,6917.9,95.438,540.503,539.026,0.0
54188.0,STARLINK-5238,PAYLOAD,2023-06-08 08:25:22,15.08834176,0.0001072,53.2146,187.4203,94.0565,266.055,1.9349e-05,2e-07,0.0,0 STARLINK-5238,1 54188U 22141AH  23159.35095941  .00000020  00000-0  19349-4 0  9994,2 54188  53.2146 187.4203 0001072  94.0565 266.0550 15.08834176 34221,6917.898,95.438,540.505,539.022,0.0
54188.0,STARLINK-5238,PAYLOAD,2023-06-09 08:16:11,15.08821145,0.0001196,53.2143,182.9603,86.2052,273.9077,-0.00010068,-1.889e-05,0.0,0 STARLINK-5238,1 54188U 22141AH  23160.34457980 -.00001889  00000-0 -10068-3 0  9994,2 54188  53.2143 182.9603 0001196  86.2052 273.9077 15.08821145 34608,6917.938,95.439,540.63,538.976,0.0
